[{"OBJECT_NAME":"WEILAI 1R","OBJECT_ID":"2019-093F","EPOCH":"2026-03-09T22:33:48.244608","MEAN_MOTION":14.997592,"ECCENTRICITY":0.00116762,"INCLINATION":97.7939,"RA_OF_ASC_NODE":158.7373,"ARG_OF_PERICENTER":23.5076,"MEAN_ANOMALY":336.6679,"EPHEMERIS_TYPE":0,"CLASSIFICATION_TYPE":"U","NORAD_CAT_ID":44884,"ELEMENT_SET_NO":999,"REV_AT_EPOCH":33754,"BSTAR":0.00050142794,"MEAN_MOTION_DOT":6.146e-5,"MEAN_MOTION_DDOT":0},{"OBJECT_NAME":"ISTSAT-1","OBJECT_ID":"2024-128D","EPOCH":"2026-03-09T22:00:43.506144","MEAN_MOTION":15.10231455,"ECCENTRICITY":0.00491528,"INCLINATION":61.9882,"RA_OF_ASC_NODE":196.777,"ARG_OF_PERICENTER":111.8391,"MEAN_ANOMALY":248.7942,"EPHEMERIS_TYPE":0,"CLASSIFICATION_TYPE":"U","NORAD_CAT_ID":60238,"ELEMENT_SET_NO":999,"REV_AT_EPOCH":9146,"BSTAR":0.00064802971,"MEAN_MOTION_DOT":0.0001075,"MEAN_MOTION_DDOT":0}]
